[{"OBJECT_NAME":"GECAM-A","OBJECT_ID":"2020-094A","EPOCH":"2026-02-27T03:21:27.347040","MEAN_MOTION":15.0033434,"ECCENTRICITY":0.00107,"INCLINATION":28.9961,"RA_OF_ASC_NODE":20.3521,"ARG_OF_PERICENTER":243.6219,"MEAN_ANOMALY":116.328,"EPHEMERIS_TYPE":0,"CLASSIFICATION_TYPE":"U","NORAD_CAT_ID":47234,"ELEMENT_SET_NO":999,"REV_AT_EPOCH":28514,"BSTAR":0.00017329,"MEAN_MOTION_DOT":2.379e-5,"MEAN_MOTION_DDOT":0},{"OBJECT_NAME":"STARLINK-5747","OBJECT_ID":"2023-020F","EPOCH":"2026-03-09T04:45:28.037952","MEAN_MOTION":15.02535141,"ECCENTRICITY":0.00013341,"INCLINATION":43.0059,"RA_OF_ASC_NODE":7.4555,"ARG_OF_PERICENTER":267.4979,"MEAN_ANOMALY":92.5711,"EPHEMERIS_TYPE":0,"CLASSIFICATION_TYPE":"U","NORAD_CAT_ID":55574,"ELEMENT_SET_NO":999,"REV_AT_EPOCH":16884,"BSTAR":-2.6674672e-5,"MEAN_MOTION_DOT":-5.64e-6,"MEAN_MOTION_DDOT":0}]
