GECAM-A                 
1 47234U 20094A   26058.13989985  .00002379  00000+0  17329-3 0  9993
2 47234  28.9961  20.3521 0010700 243.6219 116.3280 15.00334340285149
STARLINK-5747           
1 55574U 23020F   26068.19824118 -.00000564  00000+0 -26675-4 0  9995
2 55574  43.0059   7.4555 0001334 267.4979  92.5711 15.02535141168849
